{
  "norad_id": 59671,
  "name": "STARLINK-31854",
  "history": [
    {
      "epoch": "2026-03-28T20:55:24.243168Z",
      "apogee_km": 484.35148137579563,
      "perigee_km": 481.6775534064391,
      "latitude_deg": 3.106327680272537e-05,
      "longitude_deg": 120.30529046848645,
      "height_km": 482.8469412560838,
      "semi_major_axis_km": 6861.1515173911175,
      "eccentricity": 0.00019486,
      "inclination_deg": 43.0026,
      "raan_deg": 260.4423,
      "arg_perigee_deg": 267.6418,
      "mean_anomaly_deg": 92.4211,
      "mean_motion_rev_day": 15.27591548
    }
  ]
}