{"fetched_at":"2026-03-30T09:12:31Z","count":15922,"tles":[{"name":"STARLINK-31854","line1":"1 59671U 24084T   26087.87180837  .00003802  00000+0  14758-3 0  9991","line2":"2 59671  43.0026 260.4423 0001948 267.6418  92.4211 15.27591548107668","category":"Starlink"}]}